ONEWEB-0628             
1 55169U 23004AF  24212.50715858 -.00000084  00000+0 -26757-3 0  9998
2 55169  87.8953 127.3907 0002790  84.9677 275.1770 13.12442433 77961
ONEWEB-0629             
1 55170U 23004AG  24212.82285640 -.00000050  00000+0 -16144-3 0  9998
2 55170  87.9190 142.5563 0002502  75.0558 285.0851 13.17647826 77197
ONEWEB-0631             
1 55171U 23004AH  24212.94982351 -.00000002  00000+0 -36832-4 0  9999
2 55171  87.9144 112.0335 0001783  98.8842 261.2492 13.18687040 79232
ONEWEB-0709             
1 55172U 23004AJ  24212.91489444  .00000588  00000+0  16231-2 0  9998
2 55172  87.8993 157.7151 0001222 103.4934 256.6330 13.11416188 75937
ONEWEB-0710             
1 55173U 23004AK  24212.51348066  .00000023  00000+0  26843-4 0  9995
2 55173  87.9191 142.6301 0002013  83.0608 277.0753 13.17648669 77158
ONEWEB-0711             
1 55174U 23004AL  24212.58086014 -.00000350  00000+0 -10227-2 0  9997
2 55174  87.8990 157.7503 0002835  92.1246 268.0207 13.11416396 75850
ONEWEB-0713             
1 55175U 23004AM  24212.90470781  .00000390  00000+0  10635-2 0  9997
2 55175  87.8993 157.6942 0002420  85.8557 274.2847 13.11421744 75878
ONEWEB-0715             
1 55176U 23004AN  24212.82332060  .00000144  00000+0  37089-3 0  9996
2 55176  87.8993 157.7104 0001916  90.6039 269.5308 13.11420951 75900
